[{"OBJECT_NAME":"ONEWEB-0650","OBJECT_ID":"2023-029T","EPOCH":"2026-03-09T23:38:37.664160","MEAN_MOTION":13.19724893,"ECCENTRICITY":0.00019494,"INCLINATION":87.9226,"RA_OF_ASC_NODE":324.7438,"ARG_OF_PERICENTER":91.7491,"MEAN_ANOMALY":268.3865,"EPHEMERIS_TYPE":0,"CLASSIFICATION_TYPE":"U","NORAD_CAT_ID":55813,"ELEMENT_SET_NO":999,"REV_AT_EPOCH":14581,"BSTAR":-0.00088601634,"MEAN_MOTION_DOT":-3.42e-6,"MEAN_MOTION_DDOT":0},{"OBJECT_NAME":"SL-14 DEB","OBJECT_ID":"1991-056BA","EPOCH":"2026-03-09T09:01:39.905184","MEAN_MOTION":13.20381684,"ECCENTRICITY":0.00056112,"INCLINATION":82.5194,"RA_OF_ASC_NODE":197.6003,"ARG_OF_PERICENTER":1.9774,"MEAN_ANOMALY":358.1371,"EPHEMERIS_TYPE":0,"CLASSIFICATION_TYPE":"U","NORAD_CAT_ID":45312,"ELEMENT_SET_NO":999,"REV_AT_EPOCH":29138,"BSTAR":0.0014704192,"MEAN_MOTION_DOT":6.07e-6,"MEAN_MOTION_DDOT":0}]
